OBJECT_NAME,OBJECT_ID,EPOCH,MEAN_MOTION,ECCENTRICITY,INCLINATION,RA_OF_ASC_NODE,ARG_OF_PERICENTER,MEAN_ANOMALY,EPHEMERIS_TYPE,CLASSIFICATION_TYPE,NORAD_CAT_ID,ELEMENT_SET_NO,REV_AT_EPOCH,BSTAR,MEAN_MOTION_DOT,MEAN_MOTION_DDOT
STARLINK-32024,2024-117X,2026-06-16T16:05:20.745600,15.30203572,.0001137,53.1608,297.1672,83.9507,276.1623,0,U,60112,999,11204,.33737E-4,.64E-5,0
STARLINK-11201 [DTC],2024-118A,2026-06-16T02:06:59.312736,15.69706817,.00008472,53.1582,96.5088,77.5393,282.5720,0,U,60113,999,11344,-.2697926E-5,-.915E-5,0
STARLINK-11198 [DTC],2024-118B,2026-06-16T01:59:55.346208,15.69707434,.00012025,53.1602,96.4758,86.9794,273.1362,0,U,60114,999,11344,.16331254E-4,.139E-4,0
STARLINK-11112 [DTC],2024-118C,2026-06-16T12:34:37.873344,15.69726859,.00010406,53.1586,94.2485,50.3044,309.8065,0,U,60115,999,11351,-.17283712E-4,-.2683E-4,0
STARLINK-11210 [DTC],2024-118D,2026-06-16T20:00:01.999008,15.69768749,.0001118,53.1601,92.6649,91.9417,244.7433,0,U,60116,999,601,-.97636E-3,-.1175E-2,0
STARLINK-11203 [DTC],2024-118E,2026-06-16T12:20:30.594336,15.69711930,.00012906,53.1615,94.1831,88.9377,271.1789,0,U,60117,999,11351,.976232E-5,.594E-5,0
STARLINK-11177 [DTC],2024-118F,2026-06-16T12:13:26.918112,15.69710901,.00011857,53.1598,94.1497,92.1051,268.0103,0,U,60118,999,11351,.1665798E-5,-.387E-5,0
STARLINK-11127 [DTC],2024-118G,2026-06-16T12:06:24.821280,15.69693564,.00009984,53.1589,94.1158,133.6526,226.4575,0,U,60119,999,11351,-.12994622E-4,-.2161E-4,0
STARLINK-11164 [DTC],2024-118H,2026-06-16T11:59:20.319936,15.69709153,.00012446,53.1582,94.0817,87.5237,272.5923,0,U,60120,999,11351,.20409881E-4,.1884E-4,0
STARLINK-11119 [DTC],2024-118J,2026-06-16T02:28:01.443936,15.69714888,.00010503,53.1596,95.8680,90.4297,269.6841,0,U,60121,999,11345,.4477229E-5,-.46E-6,0
STARLINK-11157 [DTC],2024-118K,2026-06-16T02:35:05.559936,15.69711520,.00011769,53.1604,95.9040,71.8632,288.2514,0,U,60122,999,11345,.1708007E-5,-.382E-5,0
STARLINK-11162 [DTC],2024-118L,2026-06-16T02:20:57.938784,15.69710793,.0001127,53.1590,95.8334,62.2743,297.8389,0,U,60123,999,11345,.7302662E-5,.296E-5,0
STARLINK-11161 [DTC],2024-118M,2026-06-16T02:14:02.764320,15.69710425,.00012052,53.1594,96.5330,64.8226,295.2917,0,U,60124,999,11344,.6497313E-5,.198E-5,0
STARLINK-11160 [DTC],2024-118N,2026-06-16T11:52:15.406464,15.69716634,.00012252,53.1602,94.0477,86.0603,274.0555,0,U,60125,999,11351,-.1100604E-5,-.722E-5,0
STARLINK-31846,2024-118P,2026-06-16T14:25:53.004288,15.31714156,.0001405,53.1604,287.0427,53.5303,306.5827,0,U,60126,999,11084,.47327E-4,.1104E-4,0
STARLINK-31840,2024-118Q,2026-06-16T14:19:09.340032,15.31706105,.0001293,53.1616,287.0146,93.5701,266.5448,0,U,60127,999,11084,.31721E-5,-.267E-5,0
STARLINK-31813,2024-118R,2026-06-16T13:45:32.974848,15.31712346,.0000507,53.1612,286.8716,61.0928,299.0125,0,U,60128,999,11084,-.21809E-3,-.7128E-4,0
STARLINK-31845,2024-118S,2026-06-16T13:20:48.765408,15.30193235,.0001357,53.1624,285.3375,106.5943,253.5207,0,U,60129,999,11086,.14495E-3,.3935E-4,0
STARLINK-31838,2024-118T,2026-06-16T15:32:56.849280,15.31713351,.0001203,53.1612,286.6223,81.0592,279.0545,0,U,60130,999,11085,.19526E-4,.241E-5,0
STARLINK-31785,2024-118U,2026-06-16T15:12:47.162880,15.31716753,.0001193,53.1614,286.5373,81.6697,278.4439,0,U,60131,999,11085,.12957E-5,-.325E-5,0
STARLINK-31792,2024-118V,2026-06-16T14:30:32.806368,15.30209616,.0001188,53.1607,284.8838,74.8247,285.2885,0,U,60132,999,11087,-.17459E-4,-.876E-5,0
STARLINK-32043,2024-120A,2026-06-16T20:24:13.271904,15.34388334,.0001206,53.1612,218.9411,88.0423,272.0718,0,U,60135,999,11156,.26415E-4,.516E-5,0
STARLINK-32112,2024-120B,2026-06-16T20:27:14.675616,15.34381981,.0001286,53.1594,218.9584,89.7957,270.3193,0,U,60136,999,11164,-.25589E-4,-.124E-4,0
STARLINK-32050,2024-120C,2026-06-16T20:09:05.518080,15.34381319,.0001172,53.1602,218.8809,84.8765,275.2371,0,U,60137,999,11156,-.17411E-4,-.964E-5,0
STARLINK-32025,2024-120D,2026-06-16T10:06:54.124992,15.34390668,.00011125,53.1596,220.5296,78.7763,281.3365,0,U,60138,999,11150,-.3136639E-4,-.1435E-4,0
STARLINK-31694,2024-120F,2026-06-16T20:36:16.070976,15.34435367,.0001201,53.1601,218.9960,79.1641,280.9497,0,U,60140,999,11164,.18133E-3,.5762E-4,0
STARLINK-32036,2024-120G,2026-06-16T20:45:25.513632,15.34387868,.000103,53.1598,219.0342,82.5127,277.5992,0,U,60141,999,11164,.11913E-4,.26E-6,0
STARLINK-32031,2024-120H,2026-06-16T10:03:52.479360,15.34391636,.0001342,53.1600,220.5248,86.9616,273.1540,0,U,60142,999,11158,-.366616E-5,-.5E-5,0
STARLINK-32027,2024-120J,2026-06-16T10:09:54.922176,15.34399978,.00011732,53.1597,220.5037,79.5205,280.5930,0,U,60143,999,11158,.1782567E-4,.226E-5,0
STARLINK-32033,2024-120K,2026-06-16T20:00:01.999008,15.33531619,.0000978,53.1592,219.2255,70.3283,94.9120,0,U,60144,999,558,-.23459E-3,-.8075E-4,0
