STARLINK-32024          
1 60112U 24117X   26167.67037900  .00000640  00000+0  33737-4 0  9995
2 60112  53.1608 297.1672 0001137  83.9507 276.1623 15.30203572112046
STARLINK-11201 [DTC]    
1 60113U 24118A   26167.08818649 -.00000915  00000+0 -26979-5 0  9997
2 60113  53.1582  96.5088 0000847  77.5393 282.5720 15.69706817113445
STARLINK-11198 [DTC]    
1 60114U 24118B   26167.08327947  .00001390  00000+0  16331-4 0  9990
2 60114  53.1602  96.4758 0001202  86.9794 273.1362 15.69707434113441
STARLINK-11112 [DTC]    
1 60115U 24118C   26167.52404946 -.00002683  00000+0 -17284-4 0  9991
2 60115  53.1586  94.2485 0001040  50.3044 309.8065 15.69726859113516
STARLINK-11210 [DTC]    
1 60116U 24118D   26167.83335647 -.00117500  00000+0 -97636-3 0  9990
2 60116  53.1601  92.6649 0001118  91.9417 244.7433 15.69768749  6016
STARLINK-11203 [DTC]    
1 60117U 24118E   26167.51424299  .00000594  00000+0  97623-5 0  9998
2 60117  53.1615  94.1831 0001290  88.9377 271.1789 15.69711930113516
STARLINK-11177 [DTC]    
1 60118U 24118F   26167.50933933 -.00000387  00000+0  16658-5 0  9998
2 60118  53.1598  94.1497 0001185  92.1051 268.0103 15.69710901113516
STARLINK-11127 [DTC]    
1 60119U 24118G   26167.50445395 -.00002161  00000+0 -12995-4 0  9991
2 60119  53.1589  94.1158 0000998 133.6526 226.4575 15.69693564113516
STARLINK-11164 [DTC]    
1 60120U 24118H   26167.49954074  .00001884  00000+0  20410-4 0  9990
2 60120  53.1582  94.0817 0001244  87.5237 272.5923 15.69709153113514
STARLINK-11119 [DTC]    
1 60121U 24118J   26167.10279449 -.00000046  00000+0  44772-5 0  9993
2 60121  53.1596  95.8680 0001050  90.4297 269.6841 15.69714888113451
STARLINK-11157 [DTC]    
1 60122U 24118K   26167.10770324 -.00000382  00000+0  17080-5 0  9997
2 60122  53.1604  95.9040 0001176  71.8632 288.2514 15.69711520113452
STARLINK-11162 [DTC]    
1 60123U 24118L   26167.09789281  .00000296  00000+0  73027-5 0  9994
2 60123  53.1590  95.8334 0001127  62.2743 297.8389 15.69710793113452
STARLINK-11161 [DTC]    
1 60124U 24118M   26167.09308755  .00000198  00000+0  64973-5 0  9999
2 60124  53.1594  96.5330 0001205  64.8226 295.2917 15.69710425113442
STARLINK-11160 [DTC]    
1 60125U 24118N   26167.49462276 -.00000722  00000+0 -11006-5 0  9997
2 60125  53.1602  94.0477 0001225  86.0603 274.0555 15.69716634113514
STARLINK-31846          
1 60126U 24118P   26167.60130792  .00001104  00000+0  47327-4 0  9993
2 60126  53.1604 287.0427 0001405  53.5303 306.5827 15.31714156110844
STARLINK-31840          
1 60127U 24118Q   26167.59663588 -.00000267  00000+0  31721-5 0  9998
2 60127  53.1616 287.0146 0001293  93.5701 266.5448 15.31706105110846
STARLINK-31813          
1 60128U 24118R   26167.57329832 -.00007128  00000+0 -21809-3 0  9996
2 60128  53.1612 286.8716 0000507  61.0928 299.0125 15.31712346110848
STARLINK-31845          
1 60129U 24118S   26167.55611997  .00003935  00000+0  14495-3 0  9994
2 60129  53.1624 285.3375 0001357 106.5943 253.5207 15.30193235110860
STARLINK-31838          
1 60130U 24118T   26167.64788020  .00000241  00000+0  19526-4 0  9996
2 60130  53.1612 286.6223 0001203  81.0592 279.0545 15.31713351110857
STARLINK-31785          
1 60131U 24118U   26167.63387920 -.00000325  00000+0  12957-5 0  9996
2 60131  53.1614 286.5373 0001193  81.6697 278.4439 15.31716753110859
STARLINK-31792          
1 60132U 24118V   26167.60454637 -.00000876  00000+0 -17459-4 0  9997
2 60132  53.1607 284.8838 0001188  74.8247 285.2885 15.30209616110875
STARLINK-32043          
1 60135U 24120A   26167.85015361  .00000516  00000+0  26415-4 0  9998
2 60135  53.1612 218.9411 0001206  88.0423 272.0718 15.34388334111568
STARLINK-32112          
1 60136U 24120B   26167.85225319 -.00001240  00000+0 -25589-4 0  9993
2 60136  53.1594 218.9584 0001286  89.7957 270.3193 15.34381981111645
STARLINK-32050          
1 60137U 24120C   26167.83964720 -.00000964  00000+0 -17411-4 0  9995
2 60137  53.1602 218.8809 0001172  84.8765 275.2371 15.34381319111560
STARLINK-32025          
1 60138U 24120D   26167.42145978 -.00001435  00000+0 -31366-4 0  9996
2 60138  53.1596 220.5296 0001112  78.7763 281.3365 15.34390668111509
STARLINK-31694          
1 60140U 24120F   26167.85851934  .00005762  00000+0  18133-3 0  9993
2 60140  53.1601 218.9960 0001201  79.1641 280.9497 15.34435367111649
STARLINK-32036          
1 60141U 24120G   26167.86487863  .00000026  00000+0  11913-4 0  9999
2 60141  53.1598 219.0342 0001030  82.5127 277.5992 15.34387868111642
STARLINK-32031          
1 60142U 24120H   26167.41935740 -.00000500  00000+0 -36662-5 0  9991
2 60142  53.1600 220.5248 0001342  86.9616 273.1540 15.34391636111588
STARLINK-32027          
1 60143U 24120J   26167.42355234  .00000226  00000+0  17826-4 0  9990
2 60143  53.1597 220.5037 0001173  79.5205 280.5930 15.34399978111586
STARLINK-32033          
1 60144U 24120K   26167.83335647 -.00008075  00000+0 -23459-3 0  9992
2 60144  53.1592 219.2255 0000978  70.3283  94.9120 15.33531619  5585
